     2.10           G: GLONASS NAV DATA                     RINEX VERSION / TYPE
teqc  2015Jun23                         20211102 01:25:47UTCPGM / RUN BY / DATE
Linux 2.4.21-27.ELsmp|Opteron|gcc -static|Linux x86_64|=+   COMMENT
  2021    10     9    1.862645149231D-09                    CORR TO SYSTEM TIME
                                                            END OF HEADER
 1 21 10 10 20 15  0.0 8.649844676256D-05 0.000000000000D+00 7.200000000000D+04
   -2.341438281250D+04-6.990308761597D-01 9.313225746155D-10 0.000000000000D+00
    8.477736816406D+03 3.153553009033D-01 9.313225746155D-10 1.000000000000D+00
   -5.513669433594D+03 3.458082199097D+00 1.862645149231D-09 0.000000000000D+00
 2 21 10 10 20 15  0.0 4.961928352714D-04 9.094947017729D-13 7.200000000000D+04
   -8.100925781250D+03-2.808175086975D+00 0.000000000000D+00 0.000000000000D+00
    1.190041406250D+04 6.788682937622D-01-0.000000000000D+00-4.000000000000D+00
   -2.104038916016D+04 1.456729888916D+00 2.793967723846D-09 0.000000000000D+00
13 21 10 10 20 15  0.0-6.190594285727D-05-0.000000000000D+00 7.200000000000D+04
   -6.745110351562D+03 1.039857864380D-01-0.000000000000D+00 0.000000000000D+00
    2.457480712891D+04 1.912202835083D-01 3.725290298462D-09-2.000000000000D+00
    1.113010742188D+03-3.561988830566D+00 2.793967723846D-09 0.000000000000D+00
12 21 10 10 20 15  0.0 2.690013498068D-04 2.728484105319D-12 7.200000000000D+04
   -1.251541357422D+04 7.165670394897D-01 0.000000000000D+00 0.000000000000D+00
    1.651504541016D+04-1.913508415222D+00 9.313225746155D-10-1.000000000000D+00
   -1.485746386719D+04-2.722907066345D+00 2.793967723846D-09 0.000000000000D+00
14 21 10 10 20 15  0.0 6.975233554840D-05 0.000000000000D+00 7.200000000000D+04
    3.339468261719D+03-6.195697784424D-01-9.313225746155D-10 0.000000000000D+00
    1.815730126953D+04 2.328038215637D+00 3.725290298462D-09-7.000000000000D+00
    1.761187939453D+04-2.286243438721D+00 0.000000000000D+00 0.000000000000D+00
17 21 10 10 20 15  0.0 4.653828218579D-04 2.728484105319D-12 7.200000000000D+04
    1.530262451172D+04-2.530164718628D-01-9.313225746155D-10 0.000000000000D+00
    1.992470117188D+04-6.147661209106D-01 2.793967723846D-09 4.000000000000D+00
    4.574566406250D+03 3.525859832764D+00 9.313225746155D-10 0.000000000000D+00
24 21 10 10 20 15  0.0 6.215739995241D-05 1.818989403546D-12 7.200000000000D+04
    2.859859375000D+03-1.646872520447D+00-9.313225746155D-10 0.000000000000D+00
    1.671936865234D+04-2.025457382202D+00 3.725290298462D-09 2.000000000000D+00
    1.907812402344D+04 2.021261215210D+00 0.000000000000D+00 0.000000000000D+00
 1 21 10 10 20 45  0.0 8.649937808514D-05 0.000000000000D+00 7.380000000000D+04
   -2.389250732422D+04 1.606903076172D-01 9.313225746155D-10 0.000000000000D+00
    8.880040527344D+03 9.163665771484D-02 9.313225746155D-10 1.000000000000D+00
    8.436914062500D+02 3.559758186340D+00 9.313225746155D-10 0.000000000000D+00
 2 21 10 10 20 45  0.0 4.961946979165D-04 9.094947017729D-13 7.380000000000D+04
   -1.267774755859D+04-2.240867614746D+00 9.313225746155D-10 0.000000000000D+00
    1.337087353516D+04 9.219303131104D-01 0.000000000000D+00-4.000000000000D+00
   -1.763793554688D+04 2.299007415771D+00 2.793967723846D-09 0.000000000000D+00
13 21 10 10 20 45  0.0-6.190687417984D-05-0.000000000000D+00 7.380000000000D+04
   -6.379870117188D+03 2.612600326538D-01 0.000000000000D+00 0.000000000000D+00
    2.413330029297D+04-6.861534118652D-01 2.793967723846D-09-2.000000000000D+00
   -5.258754882812D+03-3.471780776978D+00 2.793967723846D-09 0.000000000000D+00
12 21 10 10 20 45  0.0 2.690069377422D-04 2.728484105319D-12 7.380000000000D+04
   -1.136589990234D+04 5.253190994263D-01 9.313225746155D-10 0.000000000000D+00
    1.244918261719D+04-2.572901725769D+00-0.000000000000D+00-1.000000000000D+00
   -1.912001904297D+04-1.982363700867D+00 2.793967723846D-09 0.000000000000D+00
14 21 10 10 20 45  0.0 6.975326687098D-05 0.000000000000D+00 7.380000000000D+04
    2.641879394531D+03-1.768264770508D-01-0.000000000000D+00 0.000000000000D+00
    2.186733447266D+04 1.753852844238D+00 3.725290298462D-09-7.000000000000D+00
    1.286936816406D+04-2.949088096619D+00 9.313225746155D-10 0.000000000000D+00
17 21 10 10 20 45  0.0 4.653884097934D-04 2.728484105319D-12 7.380000000000D+04
    1.420517871094D+04-9.814558029175D-01-9.313225746155D-10 0.000000000000D+00
    1.834600537109D+04-1.098526954651D+00 3.725290298462D-09 4.000000000000D+00
    1.066307958984D+04 3.195363998413D+00 9.313225746155D-10 0.000000000000D+00
24 21 10 10 20 45  0.0 6.216019392014D-05 1.818989403546D-12 7.380000000000D+04
   -6.413471679688D+02-2.223231315613D+00-0.000000000000D+00 0.000000000000D+00
    1.304255224609D+04-2.014002799988D+00 3.725290298462D-09 2.000000000000D+00
    2.193375439453D+04 1.131093025208D+00-0.000000000000D+00 0.000000000000D+00
 1 21 10 10 21 15  0.0 8.650030940771D-05 0.000000000000D+00 7.560000000000D+04
   -2.289484912109D+04 9.227619171143D-01 9.313225746155D-10 0.000000000000D+00
    8.674951660156D+03-3.518152236938D-01 9.313225746155D-10 1.000000000000D+00
    7.135761718750D+03 3.385993003845D+00 0.000000000000D+00 0.000000000000D+00
 2 21 10 10 21 15  0.0 4.961965605617D-04 9.094947017729D-13 7.560000000000D+04
   -1.606600976562D+04-1.504289627075D+00 9.313225746155D-10 0.000000000000D+00
    1.508223144531D+04 9.377822875977D-01 0.000000000000D+00-4.000000000000D+00
   -1.287154687500D+04 2.962455749512D+00 2.793967723846D-09 0.000000000000D+00
13 21 10 10 21 15  0.0-6.190780550241D-05-0.000000000000D+00 7.560000000000D+04
   -5.951458007812D+03 1.752481460571D-01 9.313225746155D-10 0.000000000000D+00
    2.212422851562D+04-1.531030654907D+00 9.313225746155D-10-2.000000000000D+00
   -1.122397558594D+04-3.113233566284D+00 2.793967723846D-09 0.000000000000D+00
12 21 10 10 21 15  0.0 2.690115943551D-04 2.728484105319D-12 7.560000000000D+04
   -1.073012060547D+04 1.587047576904D-01 9.313225746155D-10 0.000000000000D+00
    7.391069335938D+03-3.002660751343D+00-1.862645149231D-09-1.000000000000D+00
   -2.190124023438D+04-1.087673187256D+00 2.793967723846D-09 0.000000000000D+00
14 21 10 10 21 15  0.0 6.975419819355D-05 0.000000000000D+00 7.560000000000D+04
    2.601686035156D+03 9.832668304443D-02 0.000000000000D+00 0.000000000000D+00
    2.434951464844D+04 9.779844284058D-01 3.725290298462D-09-7.000000000000D+00
    7.132083007812D+03-3.384321212769D+00 1.862645149231D-09 0.000000000000D+00
17 21 10 10 21 15  0.0 4.653949290514D-04 2.728484105319D-12 7.560000000000D+04
    1.174890869141D+04-1.743686676025D+00-0.000000000000D+00 0.000000000000D+00
    1.612875537109D+04-1.319239616394D+00 3.725290298462D-09 4.000000000000D+00
    1.592968554688D+04 2.618517875671D+00 0.000000000000D+00 0.000000000000D+00
 3 21 10 10 21 15  0.0 4.448462277651D-05 0.000000000000D+00 7.572000000000D+04
    4.204326171875D+02-2.728297233582D+00 0.000000000000D+00 0.000000000000D+00
    1.187167382812D+04 1.463004112244D+00-0.000000000000D+00 5.000000000000D+00
   -2.254436376953D+04 7.130298614502D-01 2.793967723846D-09 0.000000000000D+00
24 21 10 10 21 15  0.0 6.216391921043D-05 1.818989403546D-12 7.572000000000D+04
   -5.040942382812D+03-2.629009246826D+00 0.000000000000D+00 0.000000000000D+00
    9.620532714844D+03-1.751275062561D+00 3.725290298462D-09 2.000000000000D+00
    2.309745898438D+04 1.534843444824D-01-0.000000000000D+00 0.000000000000D+00
15 21 10 10 21 15  0.0 1.009469851851D-04 0.000000000000D+00 7.671000000000D+04
    9.309606933594D+03-3.777980804443D-02-0.000000000000D+00 0.000000000000D+00
    1.215901220703D+04 2.790509223938D+00 3.725290298462D-09 0.000000000000D+00
    2.042519335938D+04-1.646043777466D+00-0.000000000000D+00 0.000000000000D+00
 1 21 10 10 21 45  0.0 8.650030940771D-05 0.000000000000D+00 7.740000000000D+04
   -2.068727539062D+04 1.491438865662D+00 9.313225746155D-10 0.000000000000D+00
    7.520270019531D+03-9.496278762817D-01 9.313225746155D-10 1.000000000000D+00
    1.287562939453D+04 2.950185775757D+00-0.000000000000D+00 0.000000000000D+00
 2 21 10 10 21 45  0.0 4.961993545294D-04 9.094947017729D-13 7.740000000000D+04
   -1.805696679688D+04-7.075271606445D-01 9.313225746155D-10 0.000000000000D+00
    1.659099707031D+04 6.953458786011D-01 0.000000000000D+00-4.000000000000D+00
   -7.111158691406D+03 3.396401405334D+00 1.862645149231D-09 0.000000000000D+00
 3 21 10 10 21 45  0.0 4.448555409908D-05 0.000000000000D+00 7.740000000000D+04
   -4.088929199219D+03-2.247490882874D+00 0.000000000000D+00 0.000000000000D+00
    1.472736474609D+04 1.672904968262D+00-0.000000000000D+00 5.000000000000D+00
   -2.040390673828D+04 1.649583816528D+00 2.793967723846D-09 0.000000000000D+00
13 21 10 10 21 45  0.0-6.190873682499D-05-0.000000000000D+00 7.740000000000D+04
   -5.878633300781D+03-1.255111694336D-01 9.313225746155D-10 0.000000000000D+00
    1.870850341797D+04-2.231787681580D+00 0.000000000000D+00-2.000000000000D+00
   -1.632174267578D+04-2.514224052429D+00 2.793967723846D-09 0.000000000000D+00
14 21 10 10 21 45  0.0 6.975512951612D-05 0.000000000000D+00 7.740000000000D+04
    2.860312011719D+03 1.489944458008D-01 9.313225746155D-10 0.000000000000D+00
    2.532596093750D+04 9.913253784180D-02 2.793967723846D-09-7.000000000000D+00
    8.431752929688D+02-3.557962417603D+00 2.793967723846D-09 0.000000000000D+00
15 21 10 10 21 45  0.0 1.009469851851D-04-0.000000000000D+00 7.740000000000D+04
    9.582060546875D+03 3.157968521118D-01 0.000000000000D+00 0.000000000000D+00
    1.674447167969D+04 2.263169288635D+00 3.725290298462D-09 0.000000000000D+00
    1.671273828125D+04-2.452255249023D+00 0.000000000000D+00 0.000000000000D+00
17 21 10 10 21 45  0.0 4.654005169868D-04 2.728484105319D-12 7.740000000000D+04
    7.977596679688D+03-2.423409461975D+00 0.000000000000D+00 0.000000000000D+00
    1.375957226562D+04-1.270127296448D+00 3.725290298462D-09 4.000000000000D+00
    1.996817626953D+04 1.839580535889D+00 0.000000000000D+00 0.000000000000D+00
